STARLINK-5741           
1 55582U 23020P   24253.51164768  .00001932  00000+0  15805-3 0  9992
2 55582  43.0028  79.1454 0001507 268.2561  91.8109 15.02541541 86917
STARLINK-5742           
1 55583U 23020Q   24252.93977557 -.00005519  00000+0 -39424-3 0  9996
2 55583  43.0007  95.5500 0002418  43.1843 316.9188 15.02490331 86675
STARLINK-5736           
1 55584U 23020R   24252.87103676 -.00000027  00000+0  13062-4 0  9992
2 55584  43.0015  95.8938 0001040 287.0500  73.0228 15.02533130 86662
STARLINK-5769           
1 55585U 23020S   24253.83306542  .00003312  00000+0  26020-3 0  9993
2 55585  43.0041  78.1142 0001093 263.8021  96.2697 15.02526602 86956
STARLINK-5767           
1 55586U 23020T   24252.99622062  .00001464  00000+0  12342-3 0  9996
2 55586  43.0023  95.1153 0001413 266.0356  94.0325 15.02533562 86687
STARLINK-5727           
1 55587U 23020U   24253.00175845  .00001168  00000+0  10156-3 0  9994
2 55587  43.0020  95.0929 0001236 275.9086  84.1616 15.02533232 86684
STARLINK-5728           
1 55588U 23020V   24253.92024577  .00001438  00000+0  12152-3 0  9999
2 55588  43.0023  90.0062 0001535 263.8045  96.2622 15.02537649 86827
STARLINK-5697           
1 55589U 23020W   24252.99510594 -.00000380  00000+0 -13049-4 0  9999
2 55589  43.0014  95.1076 0001200 284.6438  75.4271 15.02540744 86688
STARLINK-5762           
1 55590U 23020X   24253.84710905  .00001536  00000+0  12875-3 0  9991
2 55590  43.0024  90.3189 0001425 259.1355 100.9327 15.02537107 86817
STARLINK-5760           
1 55591U 23020Y   24252.99288880  .00000928  00000+0  83773-4 0  9999
2 55591  43.0018  95.0895 0001074 282.2875  77.7847 15.02536045 86684
STARLINK-5759           
1 55592U 23020Z   24253.90914642  .00000592  00000+0  58897-4 0  9990
2 55592  43.0007  89.9283 0001192 269.1890  90.8816 15.02535761 86820
STARLINK-5703           
1 55593U 23020AA  24253.91691196  .00001067  00000+0  94062-4 0  9990
2 55593  43.0025  89.9833 0001330 283.8405  76.2289 15.02540533 86826
STARLINK-5750           
1 55594U 23020AB  24253.90581316  .00001165  00000+0  10132-3 0  9996
2 55594  43.0048  89.8990 0001963 257.1188 102.9436 15.02545092 86825
STARLINK-5740           
1 55595U 23020AC  24253.91247416  .00001692  00000+0  14027-3 0  9990
2 55595  43.0039  89.9453 0001112 282.1964  77.8754 15.02538400 86825
STARLINK-5729           
1 55596U 23020AD  24253.90359528  .00001303  00000+0  11148-3 0  9998
2 55596  43.0032  89.8843 0001228 260.6542  99.4162 15.02537761 86824
STARLINK-5743           
1 55597U 23020AE  24253.82973204  .00002232  00000+0  18026-3 0  9997
2 55597  43.0014  78.0870 0001041 264.7656  95.3067 15.02537342 86957
STARLINK-5756           
1 55598U 23020AF  24253.90619275 -.00001830  00000+0 -12041-3 0  9998
2 55598  43.0034  77.7664 0001814 263.1295  96.9341 15.02532155 86967
STARLINK-5761           
1 55599U 23020AG  24253.23808580  .00002789  00000+0  22150-3 0  9998
2 55599  43.0020  81.3544 0000904 277.1979  82.8761 15.02532518 86866
STARLINK-5755           
1 55600U 23020AH  24253.82417225  .00001653  00000+0  13740-3 0  9992
2 55600  43.0023  78.0299 0001264 277.1187  82.9512 15.02542676 86954
STARLINK-5744           
1 55601U 23020AJ  24253.90026662  .00001414  00000+0  11970-3 0  9991
2 55601  43.0017  89.8599 0001319 267.3928  92.6763 15.02539395 86822
STARLINK-5764           
1 55602U 23020AK  24253.83416043  .00001293  00000+0  11076-3 0  9992
2 55602  43.0037  78.0869 0000894 224.8606 135.2164 15.02537282 86959
STARLINK-5735           
1 55603U 23020AL  24253.82750743  .00000317  00000+0  38523-4 0  9993
2 55603  43.0028  78.0581 0000979 281.6907  78.3826 15.02536871 86955
STARLINK-5748           
1 55604U 23020AM  24253.79668289  .00002272  00000+0  18315-3 0  9991
2 55604  43.0022  64.8171 0001282 276.5627  83.5070 15.02545819 87107
STARLINK-5725           
1 55605U 23020AN  24253.82306293  .00002058  00000+0  16737-3 0  9998
2 55605  43.0022  78.0208 0001221 280.8948  79.1757 15.02543397 86957
STARLINK-5700           
1 55607U 23020AQ  24253.81641238  .00000549  00000+0  55721-4 0  9990
2 55607  43.0037  77.9734 0001357 274.8642  85.2046 15.02534905 86955
STARLINK-5726           
1 55608U 23020AR  24253.81418930  .00002429  00000+0  19483-3 0  9995
2 55608  43.0030  77.9560 0001227 265.2023  94.8679 15.02527412 86952
STARLINK-5719           
1 55609U 23020AS  24253.81974074  .00000758  00000+0  71169-4 0  9995
2 55609  43.0041  77.9988 0001411 273.0636  87.0045 15.02536013 86959
STARLINK-5722           
1 55610U 23020AT  24253.80641346  .00000271  00000+0  35101-4 0  9995
2 55610  43.0005  77.8985 0000849 275.8448  84.2298 15.02547236 86950
STARLINK-5730           
1 55611U 23020AU  24253.80419421  .00001056  00000+0  93180-4 0  9996
2 55611  43.0030  77.8824 0001059 274.4958  85.5764 15.02549133 86956
STARLINK-5734           
1 55612U 23020AV  24253.93604546  .00001111  00000+0  97265-4 0  9995
2 55612  43.0022  77.1523 0001403 270.5337  89.5345 15.02537974 86979
STARLINK-5715           
1 55613U 23020AW  24253.81086013  .00000988  00000+0  88187-4 0  9990
2 55613  43.0025  77.9323 0001593 271.6049  88.4611 15.02534794 86950
STARLINK-5714           
1 55614U 23020AX  24253.47538743  .00001129  00000+0  98648-4 0  9996
2 55614  43.0036  66.6712 0001352 270.2021  89.8666 15.02543533 87056
STARLINK-5712           
1 55615U 23020AY  24253.93271470  .00000934  00000+0  84209-4 0  9990
2 55615  43.0041  77.1251 0001280 261.1319  98.9378 15.02539339 86977
STARLINK-5710           
1 55616U 23020AZ  24253.92381197 -.00025229  00000+0 -18529-2 0  9994
2 55616  43.0013  77.0610 0001901 287.4819  72.5815 15.02663813 86970
STARLINK-5721           
1 55617U 23020BA  24253.79642868  .00000602  00000+0  59627-4 0  9997
2 55617  43.0025  77.8231 0001106 264.9831  95.0885 15.02541039 86952
STARLINK-5717           
1 55618U 23020BB  24253.92272499  .00002065  00000+0  16786-3 0  9995
2 55618  43.0033  77.0509 0001452 266.0279  94.0398 15.02541088 86979
STARLINK-5720           
1 55619U 23020BC  24253.91939233  .00001940  00000+0  15863-3 0  9997
2 55619  43.0031  77.0247 0001143 270.2133  89.8579 15.02541298 86976
STARLINK-5718           
1 55620U 23020BD  24253.84959235 -.00000190  00000+0  97825-6 0  9993
2 55620  43.0018  77.3610 0001323 267.5743  92.4948 15.02543281 86969
STARLINK-5709           
1 55621U 23020BE  24253.79420870  .00001804  00000+0  14859-3 0  9991
2 55621  43.0048  77.8036 0001395 260.8013  99.2671 15.02540841 86951
STARLINK-5702           
1 55622U 23020BF  24253.78089210  .00001465  00000+0  12353-3 0  9990
2 55622  43.0042  77.7079 0001432 274.4128  85.6550 15.02537389 86950
STARLINK-5698           
1 55623U 23020BG  24253.84293145  .00002612  00000+0  20840-3 0  9997
2 55623  43.0030  77.3072 0001226 259.7514 100.3190 15.02530793 86961
STARLINK-5484           
1 55628U 23021A   24253.91052954  .00001200  00000+0  10833-3 0  9995
2 55628  70.0003 140.6481 0002901 270.1734  89.9093 14.98329656 86542
STARLINK-5497           
1 55629U 23021B   24253.91470143  .00001467  00000+0  13066-3 0  9996
2 55629  70.0003 140.6644 0003018 270.5412  89.5401 14.98334074 86540
STARLINK-5303           
1 55630U 23021C   24253.90635438  .00001267  00000+0  11393-3 0  9996
2 55630  70.0002 140.6331 0003025 270.0950  89.9863 14.98330147 86547
STARLINK-5558           
1 55631U 23021D   24253.94806464  .00000800  00000+0  74790-4 0  9993
2 55631  70.0004 140.3761 0002689 261.4956  98.5899 14.98335783 86556
STARLINK-5546           
1 55632U 23021E   24253.96476359  .00001508  00000+0  13410-3 0  9999
2 55632  70.0001 140.4340 0003062 268.8215  91.2594 14.98335989 86553
STARLINK-5498           
1 55633U 23021F   24253.96058682  .00001505  00000+0  13387-3 0  9995
2 55633  69.9998 140.4192 0003087 265.8444  94.2363 14.98337011 86554
STARLINK-5500           
1 55634U 23021G   24253.96492830  .00001960  00000+0  17202-3 0  9998
2 55634  70.0001 140.4353 0002944 266.3370  93.7452 14.98335981 86554
STARLINK-5495           
1 55635U 23021H   24253.94366850  .00000612  00000+0  59027-4 0  9994
2 55635  69.9995 120.4942 0002700 262.9615  97.1237 14.98337076 87041
STARLINK-5218           
1 55636U 23021J   24253.95224211  .00000424  00000+0  43361-4 0  9995
2 55636  70.0003 140.3900 0002809 264.0442  96.0396 14.98334386 86551
STARLINK-5062           
1 55637U 23021K   24253.89360638  .00002173  00000+0  18984-3 0  9998
2 55637  70.0001 120.7167 0003145 270.8048  89.2751 14.98335620 87033
STARLINK-5507           
1 55638U 23021L   24253.95641494  .00000899  00000+0  83139-4 0  9996
2 55638  69.9999 140.4052 0003023 268.5193  91.5620 14.98335203 86553
STARLINK-5508           
1 55639U 23021M   24253.93965658 -.00001295  00000+0 -10072-3 0  9994
2 55639  69.9993 120.4761 0002712 269.2795  90.8053 14.98347034 87045
STARLINK-5069           
1 55640U 23021N   24253.93531872  .00001573  00000+0  13960-3 0  9999
2 55640  69.9992 120.4599 0002932 265.9692  94.1132 14.98338786 87047
STARLINK-5065           
1 55641U 23021P   24253.94383067  .00001601  00000+0  14192-3 0  9992
2 55641  69.9988 120.4916 0003086 265.5090  94.5717 14.98339300 87041
STARLINK-5483           
1 55643U 23021R   24253.90612778  .00000769  00000+0  72205-4 0  9998
2 55643  69.9992 120.7537 0003099 269.0427  91.0377 14.98333719 87038
STARLINK-5502           
1 55644U 23021S   24253.95201828  .00000852  00000+0  79151-4 0  9994
2 55644  70.0001 120.5210 0002645 255.2220 104.8646 14.98333586 87048
STARLINK-5104           
1 55646U 23021U   24253.89778127  .00000379  00000+0  39584-4 0  9990
2 55646  69.9997 120.7314 0002965 267.8442  92.2377 14.98333093 87031
STARLINK-5510           
1 55647U 23021V   24253.91862455  .00001059  00000+0  96525-4 0  9996
2 55647  69.9995 120.4010 0002977 271.1225  88.9593 14.98333733 87044
